[ ["CSS (TIANHE)", 48274, "1 48274U 21035A   26204.73936068  .00010440  00000+0  13794-3 0  9997", "2 48274  41.4707 100.0404 0002755 309.6784  50.3810 15.58301417298871", -1.0], ["SZ-21 MODULE", 66515, "1 66515U 25246C   26203.97462332  .00060021  00000+0  31977-3 0  9999", "2 66515  41.4724  83.9224 0009494 269.0433  90.9325 15.79442093 39394", null], ["COSMO-SKYMED 1", 31598, "1 31598U 07023A   26204.82659356  .00003177  00000+0  27945-3 0  9993", "2 31598  97.8864  36.9939 0001924  92.2122 267.9320 14.97258074 35276", null], ["COSMOS 2428", 31792, "1 31792U 07029A   26204.60351961  .00000350  00000+0  21353-3 0  9999", "2 31792  70.9381 278.0187 0007349  64.5683 295.6198 14.12940551983293", null], ["SL-16 R/B", 31793, "1 31793U 07029B   26204.61143115  .00000300  00000+0  18012-3 0  9994", "2 31793  70.9740 246.6603 0001936 260.7425 266.8699 14.14857135984594", null], ["KORONAS-FOTON", 33504, "1 33504U 09003A   26204.71065635  .00013622  00000+0  27338-3 0  9993", "2 33504  82.4304 134.1409 0011307  35.3735 324.8261 15.46466627966743", null], ["CZ-2C R/B", 37731, "1 37731U 11030B   26204.39593131  .00000796  00000+0  10622-3 0  9999", "2 37731  97.8674 159.1353 0050647 268.7083 251.2245 14.81543609810187", null], ["H-2A R/B", 38341, "1 38341U 12025E   26204.41376201  .00002055  00000+0  18683-3 0  9997", "2 38341  98.4854 182.5552 0042763 227.1222 132.6403 14.95859179768500", null], ["SHIJIAN-16 (SJ-16)", 39358, "1 39358U 13057A   26204.83532209  .00000912  00000+0  91073-4 0  9995", "2 39358  74.9730 287.2695 0015454 143.7978 216.4260 14.92686896691812", null], ["SL-4 R/B", 39679, "1 39679U 14021B   26204.73780012  .00010935  00000+0  22254-3 0  9999", "2 39679  51.6068  31.6189 0089251 240.0024 119.2082 15.42618448677250", null], ["ALOS-2", 39766, "1 39766U 14029A   26204.86381103  .00001127  00000+0  15774-3 0  9998", "2 39766  97.9223 301.5035 0001612  92.5095 267.6301 14.79475113657007", null], ["YAOGAN-29", 41038, "1 41038U 15069A   26204.88010073 -.00000234  00000+0 -22141-4 0  9992", "2 41038  98.0026 233.5685 0000077 142.3618 217.7601 14.83109215576066", null], ["ASTRO-H (HITOMI)", 41337, "1 41337U 16012A   26204.31049978  .00002024  00000+0  11360-3 0  9994", "2 41337  30.9974 200.8644 0009705 256.4013 103.5544 15.10656982572759", null], ["HXMT (HUIYAN)", 42758, "1 42758U 17034A   26204.76991306  .00006074  00000+0  29480-3 0  9998", "2 42758  43.0154 339.2968 0031108  14.9616 345.2146 15.18749592503223", null], ["SAOCOM 1A", 43641, "1 43641U 18076A   26204.79430443  .00000118  00000+0  21401-4 0  9999", "2 43641  97.8897  31.0116 0001448  87.3162 272.8217 14.82150447421523", null], ["H-2A R/B", 43682, "1 43682U 18084L   26204.63616054  .00020611  00000+0  41455-3 0  9990", "2 43682  98.8521  91.5238 0020232 268.7185  91.1742 15.46457419426756", null], ["SAOCOM 1B", 46265, "1 46265U 20059A   26204.82551252  .00000830  00000+0  11083-3 0  9999", "2 46265  97.8903  30.1392 0001541  87.3687 272.7703 14.82149721318918", null], ["COSMOS 2550", 48865, "1 48865U 21056A   26204.86651025  .00005936  00000+0  18570-3 0  9998", "2 48865  67.1438 348.9514 0008573 269.2079  90.8093 15.33897138284342", null], ["CZ-2C R/B", 52794, "1 52794U 22058K   26204.36003310  .00042695  00000+0  42964-3 0  9997", "2 52794  50.1859 334.9356 0029877  56.6037 303.7790 15.64379383231307", null], ["CZ-2C R/B", 54039, "1 54039U 22132E   26204.26907766  .00074640  00000+0  48121-3 0  9997", "2 54039  97.2909 213.0233 0008474 301.3294  58.7141 15.75882996211626", null], ["GSLV R/B", 54149, "1 54149U 22138AN  26204.27296412  .00002094  00000+0  17683-3 0  9998", "2 54149  87.3816 120.8668 0022521  24.9712 335.2604 14.97411456204210", null], ["XRISM", 57800, "1 57800U 23137A   26204.88037308  .00004891  00000+0  26674-3 0  9996", "2 57800  31.0020 121.8633 0007772 332.4093  27.6132 15.12722151158427", null], ["ACS3", 59588, "1 59588U 24077B   26204.35659926  .00037065  00000+0  25194-1 0  9996", "2 59588  97.1782 115.1445 0130593  27.3125 333.4830 13.95779786113082", null], ["SPACEMOBILE-003", 61045, "1 61045U 24163A   26204.82293406  .00002367  00000+0  12101-3 0  9995", "2 61045  52.9689 140.9699 0003476 225.0265 135.0448 15.20677350103349", null], ["SPACEMOBILE-005", 61046, "1 61046U 24163B   26204.21492985  .00001507  00000+0  82557-4 0  9990", "2 61046  52.9740 143.7232 0008301 219.1098 140.9297 15.20624425103243", null], ["SPACEMOBILE-001", 61047, "1 61047U 24163C   26204.54181854 -.00000036  00000+0  13127-4 0  9991", "2 61047  52.9700 141.9250 0006712 219.0311 141.0200 15.20677408103291", null], ["SPACEMOBILE-002", 61048, "1 61048U 24163D   26204.06618634  .00022234  00000+0  10167-2 0  9992", "2 61048  52.9773 144.1623 0004784 212.6215 147.4484 15.20478362103225", null], ["SPACEMOBILE-004", 61049, "1 61049U 24163E   26204.11393918  .00021285  00000+0  96977-3 0  9993", "2 61049  52.9731 143.7101 0005257 250.7696 109.2730 15.20626990103231", null], ["CZ-8A R/B", 66004, "1 66004U 25231K   26204.45678363 -.00000029  00000+0  48577-4 0  9991", "2 66004  50.0026 245.0095 0116538 351.7055   8.1933 14.30164009 40136", null], ["SPACEMOBILE-006", 67232, "1 67232U 25309A   26204.89778521  .00003101  00000+0  16274-3 0  9997", "2 67232  52.9959 163.4648 0009427 245.2954 114.7059 15.18696754 32178", null]]